{
  "type": "FeatureCollection",
  "features": [
    {
      "type": "Feature",
      "id": "italy",
      "properties": {
        "name": "Italy",
        "cc": "IT"
      },
      "geometry": {
        "type": "Polygon",
        "coordinates": [
          [
            [6.62, 47.09],
            [18.52, 47.09],
            [18.52, 36.65],
            [6.62, 36.65],
            [6.62, 47.09]
          ]
        ]
      }
    },
    {
      "type": "Feature",
      "id": "pakistan",
      "properties": {
        "name": "Pakistan",
        "cc": "PK"
      },
      "geometry": {
        "type": "Polygon",
        "coordinates": [
          [
            [60.88, 36.88],
            [77.83, 36.88],
            [77.83, 23.69],
            [60.88, 23.69],
            [60.88, 36.88]
          ]
        ]
      }
    }
  ]
}
